CCSDS_OMM_VERS = 2.0
CREATION_DATE  = 
ORIGINATOR     = 

OBJECT_NAME    = INTERCOSMOS 25
OBJECT_ID      = 1991-086A
CENTER_NAME    = EARTH
REF_FRAME      = TEME
TIME_SYSTEM    = UTC
MEAN_ELEMENT_THEORY = SGP/SGP4

EPOCH          = 2025-12-15T06:39:20.155968
MEAN_MOTION    = 12.11735751
ECCENTRICITY   = .14864946
INCLINATION    = 82.6068
RA_OF_ASC_NODE = 1.0417
ARG_OF_PERICENTER = 298.9262
MEAN_ANOMALY   = 47.0676

EPHEMERIS_TYPE = 0
CLASSIFICATION_TYPE = U
NORAD_CAT_ID   = 21819
ELEMENT_SET_NO = 999
REV_AT_EPOCH   = 48646
BSTAR          = .34763522E-3
MEAN_MOTION_DOT = .1747E-4
MEAN_MOTION_DDOT = 0

CCSDS_OMM_VERS = 2.0
CREATION_DATE  = 
ORIGINATOR     = 

OBJECT_NAME    = SL-8 R/B
OBJECT_ID      = 1992-008B
CENTER_NAME    = EARTH
REF_FRAME      = TEME
TIME_SYSTEM    = UTC
MEAN_ELEMENT_THEORY = SGP/SGP4

EPOCH          = 2025-12-15T09:19:25.231008
MEAN_MOTION    = 13.75959477
ECCENTRICITY   = .00350281
INCLINATION    = 82.9266
RA_OF_ASC_NODE = 330.4760
ARG_OF_PERICENTER = 12.4969
MEAN_ANOMALY   = 140.7059

EPHEMERIS_TYPE = 0
CLASSIFICATION_TYPE = U
NORAD_CAT_ID   = 21876
ELEMENT_SET_NO = 999
REV_AT_EPOCH   = 69782
BSTAR          = .13019216E-3
MEAN_MOTION_DOT = .142E-5
MEAN_MOTION_DDOT = 0

CCSDS_OMM_VERS = 2.0
CREATION_DATE  = 
ORIGINATOR     = 

OBJECT_NAME    = SL-8 R/B
OBJECT_ID      = 1992-020B
CENTER_NAME    = EARTH
REF_FRAME      = TEME
TIME_SYSTEM    = UTC
MEAN_ELEMENT_THEORY = SGP/SGP4

EPOCH          = 2025-12-15T04:20:37.155840
MEAN_MOTION    = 13.75527629
ECCENTRICITY   = .0029058
INCLINATION    = 82.9302
RA_OF_ASC_NODE = 216.5048
ARG_OF_PERICENTER = 171.3159
MEAN_ANOMALY   = 310.7001

EPHEMERIS_TYPE = 0
CLASSIFICATION_TYPE = U
NORAD_CAT_ID   = 21938
ELEMENT_SET_NO = 999
REV_AT_EPOCH   = 68951
BSTAR          = .10004298E-3
MEAN_MOTION_DOT = .112E-5
MEAN_MOTION_DDOT = 0

CCSDS_OMM_VERS = 2.0
CREATION_DATE  = 
ORIGINATOR     = 

OBJECT_NAME    = USA 81
OBJECT_ID      = 1992-023A
CENTER_NAME    = EARTH
REF_FRAME      = TEME
TIME_SYSTEM    = UTC
MEAN_ELEMENT_THEORY = SGP/SGP4

EPOCH          = 2025-12-15T06:28:08.544576
MEAN_MOTION    = 14.32327779
ECCENTRICITY   = .00012994
INCLINATION    = 85.0079
RA_OF_ASC_NODE = 180.1172
ARG_OF_PERICENTER = 67.9439
MEAN_ANOMALY   = 292.1892

EPHEMERIS_TYPE = 0
CLASSIFICATION_TYPE = U
NORAD_CAT_ID   = 21949
ELEMENT_SET_NO = 999
REV_AT_EPOCH   = 8270
BSTAR          = .71768865E-4
MEAN_MOTION_DOT = .214E-5
MEAN_MOTION_DDOT = 0

CCSDS_OMM_VERS = 2.0
CREATION_DATE  = 
ORIGINATOR     = 

OBJECT_NAME    = COSMOS 2219
OBJECT_ID      = 1992-076A
CENTER_NAME    = EARTH
REF_FRAME      = TEME
TIME_SYSTEM    = UTC
MEAN_ELEMENT_THEORY = SGP/SGP4

EPOCH          = 2025-12-15T06:30:35.061696
MEAN_MOTION    = 14.14062799
ECCENTRICITY   = .00191263
INCLINATION    = 71.0573
RA_OF_ASC_NODE = 194.5409
ARG_OF_PERICENTER = 323.4494
MEAN_ANOMALY   = 36.5322

EPHEMERIS_TYPE = 0
CLASSIFICATION_TYPE = U
NORAD_CAT_ID   = 22219
ELEMENT_SET_NO = 999
REV_AT_EPOCH   = 70644
BSTAR          = .57085282E-4
MEAN_MOTION_DOT = .62E-6
MEAN_MOTION_DDOT = 0

CCSDS_OMM_VERS = 2.0
CREATION_DATE  = 
ORIGINATOR     = 

OBJECT_NAME    = SL-16 R/B
OBJECT_ID      = 1992-076B
CENTER_NAME    = EARTH
REF_FRAME      = TEME
TIME_SYSTEM    = UTC
MEAN_ELEMENT_THEORY = SGP/SGP4

EPOCH          = 2025-12-15T07:41:53.477376
MEAN_MOTION    = 14.16841080
ECCENTRICITY   = .00146431
INCLINATION    = 71.0005
RA_OF_ASC_NODE = 6.0950
ARG_OF_PERICENTER = 230.5390
MEAN_ANOMALY   = 146.4855

EPHEMERIS_TYPE = 0
CLASSIFICATION_TYPE = U
NORAD_CAT_ID   = 22220
ELEMENT_SET_NO = 999
REV_AT_EPOCH   = 70988
BSTAR          = .65054798E-4
MEAN_MOTION_DOT = .83E-6
MEAN_MOTION_DDOT = 0

CCSDS_OMM_VERS = 2.0
CREATION_DATE  = 
ORIGINATOR     = 

OBJECT_NAME    = COSMOS 2221
OBJECT_ID      = 1992-080A
CENTER_NAME    = EARTH
REF_FRAME      = TEME
TIME_SYSTEM    = UTC
MEAN_ELEMENT_THEORY = SGP/SGP4

EPOCH          = 2025-12-15T07:01:59.500128
MEAN_MOTION    = 14.95770628
ECCENTRICITY   = .00161635
INCLINATION    = 82.5043
RA_OF_ASC_NODE = 359.8816
ARG_OF_PERICENTER = 113.8405
MEAN_ANOMALY   = 246.4513

EPHEMERIS_TYPE = 0
CLASSIFICATION_TYPE = U
NORAD_CAT_ID   = 22236
ELEMENT_SET_NO = 999
REV_AT_EPOCH   = 76817
BSTAR          = .14539924E-3
MEAN_MOTION_DOT = .1651E-4
MEAN_MOTION_DDOT = 0

CCSDS_OMM_VERS = 2.0
CREATION_DATE  = 
ORIGINATOR     = 

OBJECT_NAME    = SL-16 R/B
OBJECT_ID      = 1992-093B
CENTER_NAME    = EARTH
REF_FRAME      = TEME
TIME_SYSTEM    = UTC
MEAN_ELEMENT_THEORY = SGP/SGP4

EPOCH          = 2025-12-15T06:55:05.003904
MEAN_MOTION    = 14.15431314
ECCENTRICITY   = .00022195
INCLINATION    = 71.0200
RA_OF_ASC_NODE = 181.4460
ARG_OF_PERICENTER = 62.9804
MEAN_ANOMALY   = 297.1545

EPHEMERIS_TYPE = 0
CLASSIFICATION_TYPE = U
NORAD_CAT_ID   = 22285
ELEMENT_SET_NO = 999
REV_AT_EPOCH   = 70121
BSTAR          = .20354533E-3
MEAN_MOTION_DOT = .35E-5
MEAN_MOTION_DDOT = 0

CCSDS_OMM_VERS = 2.0
CREATION_DATE  = 
ORIGINATOR     = 

OBJECT_NAME    = COSMOS 2228
OBJECT_ID      = 1992-094A
CENTER_NAME    = EARTH
REF_FRAME      = TEME
TIME_SYSTEM    = UTC
MEAN_ELEMENT_THEORY = SGP/SGP4

EPOCH          = 2025-12-15T08:44:49.242048
MEAN_MOTION    = 14.96743111
ECCENTRICITY   = .00166935
INCLINATION    = 82.5177
RA_OF_ASC_NODE = 318.0228
ARG_OF_PERICENTER = 221.7035
MEAN_ANOMALY   = 138.2915

EPHEMERIS_TYPE = 0
CLASSIFICATION_TYPE = U
NORAD_CAT_ID   = 22286
ELEMENT_SET_NO = 999
REV_AT_EPOCH   = 76344
BSTAR          = .15671848E-3
MEAN_MOTION_DOT = .1821E-4
MEAN_MOTION_DDOT = 0

CCSDS_OMM_VERS = 2.0
CREATION_DATE  = 
ORIGINATOR     = 

OBJECT_NAME    = SL-16 R/B
OBJECT_ID      = 1993-016B
CENTER_NAME    = EARTH
REF_FRAME      = TEME
TIME_SYSTEM    = UTC
MEAN_ELEMENT_THEORY = SGP/SGP4

EPOCH          = 2025-12-15T09:22:55.875072
MEAN_MOTION    = 14.15287012
ECCENTRICITY   = .00079482
INCLINATION    = 71.0080
RA_OF_ASC_NODE = 32.2357
ARG_OF_PERICENTER = 92.5213
MEAN_ANOMALY   = 267.6820

EPHEMERIS_TYPE = 0
CLASSIFICATION_TYPE = U
NORAD_CAT_ID   = 22566
ELEMENT_SET_NO = 999
REV_AT_EPOCH   = 69024
BSTAR          = .52370805E-4
MEAN_MOTION_DOT = .54E-6
MEAN_MOTION_DDOT = 0

CCSDS_OMM_VERS = 2.0
CREATION_DATE  = 
ORIGINATOR     = 

OBJECT_NAME    = COSMOS 2242
OBJECT_ID      = 1993-024A
CENTER_NAME    = EARTH
REF_FRAME      = TEME
TIME_SYSTEM    = UTC
MEAN_ELEMENT_THEORY = SGP/SGP4

EPOCH          = 2025-12-15T05:51:33.941376
MEAN_MOTION    = 14.96117728
ECCENTRICITY   = .00150975
INCLINATION    = 82.5188
RA_OF_ASC_NODE = 347.4512
ARG_OF_PERICENTER = 224.9755
MEAN_ANOMALY   = 135.0246

EPHEMERIS_TYPE = 0
CLASSIFICATION_TYPE = U
NORAD_CAT_ID   = 22626
ELEMENT_SET_NO = 999
REV_AT_EPOCH   = 76776
BSTAR          = .14387321E-3
MEAN_MOTION_DOT = .1647E-4
MEAN_MOTION_DDOT = 0

CCSDS_OMM_VERS = 2.0
CREATION_DATE  = 
ORIGINATOR     = 

OBJECT_NAME    = SL-16 R/B
OBJECT_ID      = 1993-059B
CENTER_NAME    = EARTH
REF_FRAME      = TEME
TIME_SYSTEM    = UTC
MEAN_ELEMENT_THEORY = SGP/SGP4

EPOCH          = 2025-12-14T23:46:40.621152
MEAN_MOTION    = 14.17213302
ECCENTRICITY   = .00181223
INCLINATION    = 70.9886
RA_OF_ASC_NODE = 189.7397
ARG_OF_PERICENTER = 332.4168
MEAN_ANOMALY   = 27.5992

EPHEMERIS_TYPE = 0
CLASSIFICATION_TYPE = U
NORAD_CAT_ID   = 22803
ELEMENT_SET_NO = 999
REV_AT_EPOCH   = 66753
BSTAR          = -.57458832E-4
MEAN_MOTION_DOT = -.164E-5
MEAN_MOTION_DDOT = 0

CCSDS_OMM_VERS = 2.0
CREATION_DATE  = 
ORIGINATOR     = 

OBJECT_NAME    = ARIANE 40 R/B
OBJECT_ID      = 1993-061H
CENTER_NAME    = EARTH
REF_FRAME      = TEME
TIME_SYSTEM    = UTC
MEAN_ELEMENT_THEORY = SGP/SGP4

EPOCH          = 2025-12-15T04:51:01.708704
MEAN_MOTION    = 14.32803021
ECCENTRICITY   = .00110249
INCLINATION    = 98.5075
RA_OF_ASC_NODE = 54.6872
ARG_OF_PERICENTER = 168.8849
MEAN_ANOMALY   = 191.2580

EPHEMERIS_TYPE = 0
CLASSIFICATION_TYPE = U
NORAD_CAT_ID   = 22830
ELEMENT_SET_NO = 999
REV_AT_EPOCH   = 68200
BSTAR          = .12008821E-3
MEAN_MOTION_DOT = .284E-5
MEAN_MOTION_DDOT = 0

CCSDS_OMM_VERS = 2.0
CREATION_DATE  = 
ORIGINATOR     = 

OBJECT_NAME    = COSMOS 2278
OBJECT_ID      = 1994-023A
CENTER_NAME    = EARTH
REF_FRAME      = TEME
TIME_SYSTEM    = UTC
MEAN_ELEMENT_THEORY = SGP/SGP4

EPOCH          = 2025-12-15T08:45:27.599328
MEAN_MOTION    = 14.14349689
ECCENTRICITY   = .00081885
INCLINATION    = 71.0539
RA_OF_ASC_NODE = 351.5188
ARG_OF_PERICENTER = 175.3598
MEAN_ANOMALY   = 184.7603

EPHEMERIS_TYPE = 0
CLASSIFICATION_TYPE = U
NORAD_CAT_ID   = 23087
ELEMENT_SET_NO = 999
REV_AT_EPOCH   = 63288
BSTAR          = -.80078975E-4
MEAN_MOTION_DOT = -.2E-5
MEAN_MOTION_DDOT = 0

CCSDS_OMM_VERS = 2.0
CREATION_DATE  = 
ORIGINATOR     = 

OBJECT_NAME    = SL-16 R/B
OBJECT_ID      = 1994-023B
CENTER_NAME    = EARTH
REF_FRAME      = TEME
TIME_SYSTEM    = UTC
MEAN_ELEMENT_THEORY = SGP/SGP4

EPOCH          = 2025-12-15T04:00:32.897952
MEAN_MOTION    = 14.15002927
ECCENTRICITY   = .00015033
INCLINATION    = 71.0002
RA_OF_ASC_NODE = 248.3885
ARG_OF_PERICENTER = 19.0182
MEAN_ANOMALY   = 341.0997

EPHEMERIS_TYPE = 0
CLASSIFICATION_TYPE = U
NORAD_CAT_ID   = 23088
ELEMENT_SET_NO = 999
REV_AT_EPOCH   = 63413
BSTAR          = -.25160372E-4
MEAN_MOTION_DOT = -.96E-6
MEAN_MOTION_DDOT = 0

